[{"OBJECT_NAME":"YAOGAN-16 01B","OBJECT_ID":"2012-066B","EPOCH":"2026-03-09T16:02:29.918976","MEAN_MOTION":13.45502016,"ECCENTRICITY":0.04276845,"INCLINATION":63.3552,"RA_OF_ASC_NODE":187.0386,"ARG_OF_PERICENTER":26.0287,"MEAN_ANOMALY":336.1576,"EPHEMERIS_TYPE":0,"CLASSIFICATION_TYPE":"U","NORAD_CAT_ID":39012,"ELEMENT_SET_NO":999,"REV_AT_EPOCH":65271,"BSTAR":5.0682079e-5,"MEAN_MOTION_DOT":-3.9e-7,"MEAN_MOTION_DDOT":0},{"OBJECT_NAME":"FENGYUN 1C DEB","OBJECT_ID":"1999-025BNT","EPOCH":"2026-03-09T09:42:50.375808","MEAN_MOTION":14.26206774,"ECCENTRICITY":0.0198411,"INCLINATION":98.5316,"RA_OF_ASC_NODE":51.5484,"ARG_OF_PERICENTER":293.5919,"MEAN_ANOMALY":225.7224,"EPHEMERIS_TYPE":0,"CLASSIFICATION_TYPE":"U","NORAD_CAT_ID":31285,"ELEMENT_SET_NO":999,"REV_AT_EPOCH":98534,"BSTAR":0.00034470191,"MEAN_MOTION_DOT":9.67e-6,"MEAN_MOTION_DDOT":0}]
